STARLINK-3747           
1 52306U 22041AX  23313.72020968  .00004221  00000+0  28303-3 0  9998
2 52306  53.2168 309.2751 0001581  79.0278 281.0892 15.08853786 87396
STARLINK-3755           
1 52307U 22041AY  23313.73400939 -.00001689  00000+0 -88048-4 0  9990
2 52307  53.2177 319.2128 0001251  93.6869 266.4266 15.08846799 86047
STARLINK-3745           
1 52308U 22041AZ  23313.37686833  .00042699  00000+0  23805-2 0  9992
2 52308  53.2151 310.0692 0006168  66.1623 294.0017 15.13183740 87352
STARLINK-3756           
1 52309U 22041BA  23313.71652875  .00003797  00000+0  25643-3 0  9999
2 52309  53.2163 309.2910 0001945  82.2408 277.8805 15.08857320 87391
STARLINK-3688           
1 52310U 22041BB  23313.38165799  .00004487  00000+0  29972-3 0  9994
2 52310  53.2174 310.8573 0001579  89.0386 271.0787 15.08855961 87340
STARLINK-3750           
1 52311U 22041BC  23313.44420513  .00013764  00000+0  88045-3 0  9994
2 52311  53.2170 310.5126 0001107  90.5969 269.5150 15.08870073 87357
STARLINK-3752           
1 52312U 22041BD  23313.40372210  .00011820  00000+0  75874-3 0  9998
2 52312  53.2170 310.6483 0000876 101.9463 258.1627 15.08876591 87357
STARLINK-3749           
1 52313U 22041BE  23313.27493133  .00025263  00000+0  15980-2 0  9999
2 52313  53.2159 311.2734 0001211  79.5449 280.5680 15.08879199 87332
STARLINK-3889           
1 52331U 22045A   23313.59509644  .00005204  00000+0  34467-3 0  9998
2 52331  53.2167  69.8330 0001337  92.7431 267.3714 15.08855543 87154
STARLINK-3831           
1 52332U 22045B   23313.60708704  .00002117  00000+0  15094-3 0  9994
2 52332  53.2180  69.7875 0001587 109.7406 250.3758 15.08866436 87154
STARLINK-3847           
1 52333U 22045C   23313.60245656  .00000684  00000+0  61068-4 0  9997
2 52333  53.2174  69.8005 0001686  95.6336 264.4848 15.08848442 87141
STARLINK-3880           
1 52334U 22045D   23313.52517355  .00025684  00000+0  16244-2 0  9998
2 52334  53.2164  70.1483 0001317  77.1291 282.9849 15.08875127 87137
STARLINK-3814           
1 52335U 22045E   23313.65397025  .00028349  00000+0  17905-2 0  9999
2 52335  53.2157  69.5692 0001211  97.2912 262.8218 15.08873285 87163
STARLINK-3823           
1 52336U 22045F   23313.56194409  .00024463  00000+0  15491-2 0  9992
2 52336  53.2175  69.7809 0001393  79.4697 280.6452 15.08856197 87159
STARLINK-3797           
1 52337U 22045G   23313.59877644  .00003798  00000+0  25653-3 0  9995
2 52337  53.2199  69.8181 0001557  88.5665 271.5505 15.08846846 87156
STARLINK-3815           
1 52338U 22045H   23313.51931959 -.00006416  00000+0 -33149-3 0  9999
2 52338  53.2183  56.4671 0002031  67.8719 292.2491 15.14169015 87342
STARLINK-3792           
1 52339U 22045J   23313.60607996 -.00002962  00000+0 -16801-3 0  9999
2 52339  53.2175  69.4244 0001787 110.6055 249.5129 15.08855206 87161
STARLINK-3818           
1 52340U 22045K   23313.53713540  .00003455  00000+0  23503-3 0  9999
2 52340  53.2197  60.1000 0001620  94.2727 265.8450 15.08848755 87275
STARLINK-3843           
1 52341U 22045L   23313.63924402  .00002734  00000+0  18973-3 0  9996
2 52341  53.2176  69.5869 0001417  94.3103 265.8052 15.08853113 87162
STARLINK-3850           
1 52342U 22045M   23313.54083230  .00003689  00000+0  24975-3 0  9991
2 52342  53.2193  60.1975 0002057  43.4963 316.6191 15.08843496 87282
STARLINK-3849           
1 52343U 22045N   23313.54356752  .00022416  00000+0  14208-2 0  9990
2 52343  53.2168  70.0638 0001184  96.2059 263.9068 15.08871539 87155
STARLINK-3851           
1 52344U 22045P   23313.59602243  .00002647  00000+0  18431-3 0  9992
2 52344  53.2193  59.8967 0001287  74.7129 285.4005 15.08843121 87298
STARLINK-3852           
1 52345U 22045Q   23313.62274461  .00005198  00000+0  34428-3 0  9992
2 52345  53.2177  59.8745 0001458  79.4430 280.6727 15.08856114 87285
STARLINK-3812           
1 52346U 22045R   23313.52336854  .00006466  00000+0  42383-3 0  9995
2 52346  53.2182  60.1628 0001311  90.7283 269.3859 15.08854948 87280
STARLINK-3826           
1 52347U 22045S   23313.53441030  .00033523  00000+0  21110-2 0  9998
2 52347  53.2178  60.1178 0001536  70.9428 289.1731 15.08898467 87289
STARLINK-3829           
1 52348U 22045T   23313.58129261  .00002757  00000+0  19118-3 0  9994
2 52348  53.2177  59.8946 0001525  98.9827 261.1338 15.08856467 87296
STARLINK-3819           
1 52349U 22045U   23313.59232855  .00002792  00000+0  19337-3 0  9992
2 52349  53.2184  59.8478 0001462  92.8654 267.2506 15.08856152 87291
STARLINK-3754           
1 52350U 22045V   23313.57761334  .00031316  00000+0  19755-2 0  9998
2 52350  53.2166  59.9118 0001217  94.8178 265.2953 15.08868013 87299
STARLINK-3838           
1 52352U 22045X   23313.56657880  .00005040  00000+0  33445-3 0  9997
2 52352  53.2184  59.9632 0001575  81.0787 279.0383 15.08849603 87297
STARLINK-3807           
1 52353U 22045Y   23313.57393046  .00001933  00000+0  13947-3 0  9992
2 52353  53.2181  59.9284 0001448 101.3383 258.7772 15.08858150 87298
STARLINK-3876           
1 52354U 22045Z   23313.62176826  .00005681  00000+0  37454-3 0  9997
2 52354  53.2180  59.7150 0001469  81.9861 278.1298 15.08860023 87308
STARLINK-3877           
1 52355U 22045AA  23313.57025223  .00003445  00000+0  23436-3 0  9997
2 52355  53.2185  59.9464 0001685  83.0346 277.0837 15.08855179 87296
STARLINK-3801           
1 52356U 22045AB  23313.62545396  .00003963  00000+0  26684-3 0  9995
2 52356  53.2168  59.7265 0001404  77.6790 282.4360 15.08858001 87306
STARLINK-3821           
1 52357U 22045AC  23313.56288952  .00021708  00000+0  13771-2 0  9990
2 52357  53.2154  59.9766 0001311  85.1260 274.9882 15.08859985 87298
STARLINK-3837           
1 52358U 22045AD  23313.61073636  .00004940  00000+0  32812-3 0  9995
2 52358  53.2179  59.7661 0001464  83.2103 276.9056 15.08851654 87304
STARLINK-3853           
1 52359U 22045AE  23313.62641009  .00009164  00000+0  59282-3 0  9995
2 52359  53.2169  59.7040 0001390  85.8955 274.2196 15.08857565 87309
STARLINK-3824           
1 52360U 22045AF  23313.53805708  .00004615  00000+0  30777-3 0  9999
2 52360  53.2186  50.0897 0001741  83.3791 276.7399 15.08853271 87419
STARLINK-3728           
1 52361U 22045AG  23313.61809108  .00003941  00000+0  26546-3 0  9997
2 52361  53.2180  59.7304 0001477  83.6066 276.5095 15.08852898 87300
STARLINK-3848           
1 52362U 22045AH  23313.60061791  .00004803  00000+0  31968-3 0  9997
2 52362  53.2173  49.8103 0001347  84.8598 275.2547 15.08840334 87433
STARLINK-3830           
1 52363U 22045AJ  23313.61440807  .00004091  00000+0  27484-3 0  9995
2 52363  53.2176  59.7466 0001373  93.1270 266.9880 15.08856522 87307
STARLINK-3820           
1 52364U 22045AK  23313.58588201  .00008206  00000+0  53280-3 0  9998
2 52364  53.2169  49.7889 0001244 104.9853 255.1277 15.08857709 87435
STARLINK-3874           
1 52365U 22045AL  23313.54173136  .00002439  00000+0  17119-3 0  9995
2 52365  53.2179  50.0745 0001412  90.7722 269.3432 15.08855044 87426
STARLINK-3808           
1 52366U 22045AM  23313.58956792  .00014633  00000+0  93475-3 0  9995
2 52366  53.2175  49.8650 0001149  75.8753 284.2366 15.08872237 87435
STARLINK-3817           
1 52367U 22045AN  23313.59693247  .00004171  00000+0  27987-3 0  9991
2 52367  53.2182  49.8287 0001577  87.8241 272.2932 15.08854572 87438
STARLINK-3834           
1 52368U 22045AP  23313.51229482  .00002457  00000+0  17236-3 0  9991
2 52368  53.2195  50.2099 0001433  89.1762 270.9395 15.08853397 87414
STARLINK-3841           
1 52369U 22045AQ  23313.59324987  .00006262  00000+0  41091-3 0  9990
2 52369  53.2183  49.8466 0001289  75.8384 284.2751 15.08862283 87435
STARLINK-3827           
1 52370U 22045AR  23313.58684712  .00005483  00000+0  36213-3 0  9990
2 52370  53.2176  49.8801 0001443  92.3203 267.7954 15.08858803 87432
STARLINK-3798           
1 52371U 22045AS  23313.58317309  .00006479  00000+0  42469-3 0  9992
2 52371  53.2187  49.8986 0001457  96.1401 263.9758 15.08848972 87421
STARLINK-3796           
1 52372U 22045AT  23313.57484612  .00030842  00000+0  19464-2 0  9993
2 52372  53.2184  49.9250 0001053  77.8681 282.2429 15.08859820 87425
STARLINK-3550           
1 52373U 22045AU  23313.56380634  .00002261  00000+0  16007-3 0  9997
2 52373  53.2201  49.9746 0001355  68.3893 291.7243 15.08848610 87436
STARLINK-3762           
1 52374U 22045AV  23313.50124209  .00006109  00000+0  40134-3 0  9999
2 52374  53.2187  50.2556 0001526 107.4431 252.6728 15.08860448 87423
STARLINK-3785           
1 52375U 22045AW  23313.57117182  .00004216  00000+0  28274-3 0  9997
2 52375  53.2184  49.9420 0001530  95.4690 264.6477 15.08849057 87432
STARLINK-3767           
1 52376U 22045AX  23313.56014290 -.00001950  00000+0 -10449-3 0  9992
2 52376  53.2186  49.9884 0001288 106.7441 253.3692 15.08838691 87435
STARLINK-3805           
1 52377U 22045AY  23313.58223753  .00022041  00000+0  13978-2 0  9992
2 52377  53.2177  50.1130 0001452  82.7284 277.3873 15.08861823 87424
STARLINK-3806           
1 52378U 22045AZ  23313.55277647  .00005653  00000+0  37293-3 0  9998
2 52378  53.2187  50.0230 0001435  96.1135 264.0020 15.08844229 87430
STARLINK-3800           
1 52379U 22045BA  23313.55645024  .00006123  00000+0  40223-3 0  9997
2 52379  53.2178  50.0017 0001347  75.7810 284.3332 15.08863211 87432
STARLINK-3793           
1 52380U 22045BB  23313.93273346  .00003563  00000+0  24172-3 0  9995
2 52380  53.2182  38.3454 0001473  80.8122 279.3037 15.08855455 87624
STARLINK-3803           
1 52381U 22045BC  23313.54908906  .00004631  00000+0  30871-3 0  9990
2 52381  53.2177  50.0368 0001375  91.9510 268.1640 15.08860829 87435
STARLINK-3799           
1 52382U 22045BD  23313.54541848  .00003992  00000+0  26867-3 0  9998
2 52382  53.2178  50.0655 0001518  93.4417 266.6749 15.08851646 87438
